#Pass ID: 20250125_122522_METEOR-M2 4
#Satellite: METEOR-M2 4
#Configuration: METEOR-M2 4
#Start time: 2025-01-25 12:25:27.672204

#LorettStation: 1.0.0 05.05.2024
#Station: Regia
#Location: 37.494653 lon 55.929028 lat
#TLE: 1 59051U 24039A   25024.94689796  .00000136  00000+0  80670-4 0  9993
#TLE: 2 59051  98.6306 347.7476 0006670 193.2331 166.8673 14.22328610 47011

#Time	Az	El	Level	SNR
#Closed at: 2025-01-25 12:25:22.673396